HST                     
1 20580U 90037B   26063.13533951  .00010319  00000+0  34382-3 0  9997
2 20580  28.4703  77.8870 0001725  70.3509 289.7272 15.29378725772469
POLAR                   
1 23802U 96013A   26061.74629649  .00000178  00000+0  00000+0 0  9990
2 23802  79.7411 228.2678 6362278 212.6879  83.6731  1.29845818143473
SWAS                    
1 25560U 98071A   26063.16505945  .00006712  00000+0  43181-3 0  9990
2 25560  69.8967 138.1975 0003563  21.7933 338.3381 15.08830448481420
CXO                     
1 25867U 99040B   26063.59985680  .00000824  00000+0  00000+0 0  9999
2 25867  54.4843 119.7682 8003286 310.7757   0.4217  0.37808937 16926
XMM-NEWTON              
1 25989U 99066A   26061.64181856  .00000062  00000+0  00000+0 0  9993
2 25989  65.0189 284.3763 4712552  66.8130 359.9781  0.50131664 22470
TERRA                   
1 25994U 99068A   26063.16861737  .00000655  00000+0  14267-3 0  9995
2 25994  97.9604 116.8140 0002341 164.7813 260.5333 14.61008222394270
CLUSTER II-FM7 (SAMBA)  
1 26410U 00041A   26063.25310773  .00003639  00000+0  00000+0 0  9992
2 26410 148.9920  34.5676 8908777 250.6745 359.7226  0.44785609 19832
CLUSTER II-FM8 (TANGO)  
1 26464U 00045B   26049.06287974  .00004776  00000+0  00000+0 0  9997
2 26464 149.0711  33.5376 8890045 249.4570 359.4916  0.44405995 19769
ODIN                    
1 26702U 01007A   26063.07607674  .00058508  00000+0  77727-3 0  9997
2 26702  97.4079  98.8926 0004097 154.0262 206.1200 15.58021445372960
TIMED                   
1 26998U 01055B   26063.15873225  .00001877  00000+0  17523-3 0  9998
2 26998  74.0660  86.4529 0002968 281.7720  78.3131 14.95002481315124
CORIOLIS                
1 27640U 03001A   26062.63950977  .00000195  00000+0  11238-3 0  9997
2 27640  98.7161  71.1242 0014499 153.1511 207.0418 14.19910037199246
SORCE                   
1 27651U 03004A   26062.65290785  .00004692  00000+0  35208-3 0  9997
2 27651  39.9905 143.5088 0016676   9.7243 350.3871 15.03042744256019
MOST                    
1 27843U 03031D   26063.03772616  .00000121  00000+0  75651-4 0  9991
2 27843  98.7081  72.2172 0009624 189.9216 170.1772 14.21297444175777
SCISAT 1                
1 27858U 03036A   26063.00996269  .00001329  00000+0  17486-3 0  9993
2 27858  73.9315  20.2948 0005878 114.2203 245.9588 14.81298503215871
SWIFT                   
1 28485U 04047A   26062.91438175  .00052647  00000+0  64171-3 0  9991
2 28485  20.5532 271.1351 0003110 318.2835  41.7372 15.58709156170369
HINODE (SOLAR-B)        
1 29479U 06041A   26063.05230454  .00000997  00000+0  18036-3 0  9997
2 29479  98.0627  80.7292 0016149 260.9119  99.0259 14.68463614 39449
SHIJIAN-6 02A (SJ-6 02A)
1 29505U 06046A   26063.16573123  .00008453  00000+0  44841-3 0  9995
2 29505  97.6510 103.4681 0004461 127.3294 232.8345 15.15602379 56352
SHIJIAN-6 02B (SJ-6 02B)
1 29506U 06046B   26063.16485497  .00003342  00000+0  26626-3 0  9995
2 29506  97.7049  92.9444 0014171  60.8275 299.4365 15.00967169 54982
FGRST (GLAST)           
1 33053U 08029A   26062.72201035  .00005259  00000+0  20161-3 0  9992
2 33053  25.5812 216.4397 0008499 158.2408 201.8492 15.23275126979734
SDO                     
1 36395U 10005A   26063.06561392 -.00000066  00000+0  00000+0 0  9992
2 36395  34.4299  87.9334 0000328  66.0578 289.5342  1.00275428 59004
CRYOSAT 2               
1 36508U 10013A   26063.11630225  .00000287  00000+0  70443-4 0  9992
2 36508  92.0224 251.8448 0002120  86.7060 273.4389 14.51905769842835
X-SAT                   
1 37389U 11015C   26063.12672571  .00000351  00000+0  16697-3 0  9996
2 37389  98.3415  45.2102 0012964 294.2867  65.6959 14.25170470772711
GCOM-W1 (SHIZUKU)       
1 38337U 12025A   26062.83126370  .00000914  00000+0  21289-3 0  9998
2 38337  98.2049   4.9801 0001509  75.7820 345.7773 14.57088261733690
NUSTAR                  
1 38358U 12031A   26063.25002314  .00012789  00000+0  75933-3 0  9994
2 38358   6.0257 100.6187 0008221 342.4768  84.9905 15.07627524  1307
NEOSSAT                 
1 39089U 13009D   26063.12085022  .00000325  00000+0  12714-3 0  9996
2 39089  98.4136 245.6604 0010712 194.1306 165.9582 14.35782155681668
BRITE-AUSTRIA           
1 39091U 13009F   26063.03223763  .00000343  00000+0  13126-3 0  9993
2 39091  98.3950 245.0814 0010016 187.9558 172.1471 14.36492269681951
IRIS                    
1 39197U 13033A   26063.10442517  .00002041  00000+0  24104-3 0  9990
2 39197  97.9398 262.6746 0023498 304.6079  55.2920 14.85625519684775
HISAKI (SPRINT-A)       
1 39253U 13049A   26063.17847567  .00000120  00000+0  71262-4 0  9995
2 39253  29.7220  33.8742 0136723 245.4387 113.1880 13.55530068617167
CASSIOPE                
1 39265U 13055A   26063.15060103  .00048213 -44073-6  58222-3 0  9997
2 39265  80.9193 193.5985 0317347  54.6868 308.3594 15.18280062651691
STSAT-3                 
1 39422U 13066G   26063.14998951  .00003679  00000+0  28467-3 0  9993
2 39422  97.6055  34.8798 0012071  33.5577 326.6410 15.02028267668436
SWARM B                 
1 39451U 13067A   26063.10179826  .00006530  00000+0  23947-3 0  9991
2 39451  87.7486  14.1809 0003710  89.8806 270.2868 15.27793251667191
SWARM A                 
1 39452U 13067B   26063.10117401  .00015331  00000+0  28660-3 0  9999
2 39452  87.3287  95.2290 0003022  93.1119 267.0486 15.48600726689979
SWARM C                 
1 39453U 13067C   26063.10106495  .00015204  00000+0  28424-3 0  9998
2 39453  87.3284  93.8107 0003021  93.1571 267.0034 15.48600013689933
BRITE-CA1 (TORONTO)     
1 40020U 14033L   26062.30920247  .00001673  00000+0  25976-3 0  9998
2 40020  97.9556 193.3093 0077697 255.6268 103.6306 14.72440643626634
OCO 2                   
1 40059U 14035A   26063.09074977  .00000802  00000+0  18820-3 0  9992
2 40059  98.2193   6.0169 0001149  91.7684 268.3646 14.57086441620748
BRITE-PL2 (HEWELIUSZ)   
1 40119U 14049B   26062.77989302  .00003666  00000+0  34734-3 0  9998
2 40119  97.8981 174.0764 0015504  99.5590 260.7382 14.94142812625704
MMS 1                   
1 40482U 15011A   26063.25002314 -.00001952  00000+0  00000+0 0  9996
2 40482  70.7289 350.2286 8412134 165.2963  34.8637  0.28255593  1331
MMS 2                   
1 40483U 15011B   26063.25002314 -.00001952  00000+0  00000+0 0  9997
2 40483  70.7292 350.2307 8412865 165.3024  34.8471  0.28255549  1337
MMS 3                   
1 40484U 15011C   26063.25002314 -.00001952  00000+0  00000+0 0  9998
2 40484  70.7318 350.2349 8412354 165.3013  34.8419  0.28248646  1336
MMS 4                   
1 40485U 15011D   26063.25002314 -.00001952  00000+0  00000+0 0  9999
2 40485  70.7297 350.2305 8411652 165.3039  34.8413  0.28255477  1337
ASTROSAT                
1 40930U 15052A   26062.93581774  .00002565  00000+0  23142-3 0  9991
2 40930   5.9956 192.8448 0008399 328.5004  31.4621 14.82279665564180
DAMPE                   
1 41173U 15078A   26063.17765083  .00002817  00000+0  98003-4 0  9992
2 41173  97.4575  68.1411 0013900  88.6638 271.6195 15.30476679568488
PISAT                   
1 41784U 16059B   26062.55766424  .00001447  00000+0  25467-3 0  9992
2 41784  97.8188  67.5655 0029051 180.1556 179.9646 14.68755523504236
HXMT (HUIYAN)           
1 42758U 17034A   26063.18256135  .00007688  00000+0  38436-3 0  9994
2 42758  43.0149  47.2877 0032357 202.2175 157.7273 15.17375601481701
FLYING LAPTOP           
1 42831U 17042G   26063.17637476  .00004272  00000+0  34263-3 0  9995
2 42831  97.4250 223.0967 0018555 113.2625 247.0555 15.00470699470707
ZHANGHENG 1-01 (CSES-1) 
1 43194U 18015C   26063.19467444  .00015570  00000+0  70475-3 0  9995
2 43194  97.6741 226.8240 0014832 265.0246  94.9296 15.20890307448688
SALSAT                  
1 46495U 20068K   26062.77970162  .00012684  00000+0  46597-3 0  9993
2 46495  97.8847  59.5668 0008731 321.6728  38.3888 15.28039347299257
IXPE                    
1 49954U 21121A   26063.16670139  .00016504  00000+0  95187-3 0  9996
2 49954   0.2303  30.9259 0007051 290.2399  47.6019 15.09118311  5716
